OBJECT_NAME,OBJECT_ID,EPOCH,MEAN_MOTION,ECCENTRICITY,INCLINATION,RA_OF_ASC_NODE,ARG_OF_PERICENTER,MEAN_ANOMALY,EPHEMERIS_TYPE,CLASSIFICATION_TYPE,NORAD_CAT_ID,ELEMENT_SET_NO,REV_AT_EPOCH,BSTAR,MEAN_MOTION_DOT,MEAN_MOTION_DDOT
STARLINK-37531,2026-110N,2026-06-06T14:00:04.000032,15.74606374,.00017758,97.2841,353.8816,67.7627,34.5128,0,U,69136,999,395,-.12219552E-1,-.1556679E-1,0
STARLINK-37662,2026-110P,2026-06-06T14:00:04.000032,15.69061933,.00018201,97.2844,353.8666,54.8545,12.5795,0,U,69137,999,395,-.20146989E-1,-.2043274E-1,0
STARLINK-37658,2026-110Q,2026-06-06T14:00:04.000032,15.60280089,.00014162,97.2848,353.8294,76.1394,264.0068,0,U,69138,999,395,-.35890647E-1,-.2541887E-1,0
STARLINK-37659,2026-110R,2026-06-06T14:00:04.000032,15.58371769,.00014307,97.2850,353.8178,85.4763,226.9395,0,U,69139,999,395,-.3803053E-1,-.2509022E-1,0
STARLINK-37653,2026-110S,2026-06-06T14:00:04.000032,15.56929063,.00015909,97.2849,353.8162,93.7746,213.3070,0,U,69140,999,395,-.40808362E-1,-.2544282E-1,0
STARLINK-37654,2026-110T,2026-06-06T14:00:04.000032,15.67884030,.0001689,97.2841,353.8758,66.8412,23.4172,0,U,69141,999,395,-.22811705E-1,-.2182703E-1,0
STARLINK-37655,2026-110U,2026-06-06T14:00:04.000032,15.71377781,.00015235,97.2842,353.8835,72.8787,33.6257,0,U,69142,999,395,-.10423104E-1,-.1174592E-1,0
STARLINK-37636,2026-110V,2026-06-06T11:49:14.363904,15.80877608,.00019304,97.2840,353.8097,87.9372,272.2117,0,U,69143,999,395,.77093104E-3,.150531E-2,0
STARLINK-37638,2026-110W,2026-06-06T11:48:09.477504,15.80882849,.00015588,97.2841,353.8106,102.0936,258.0507,0,U,69144,999,395,.9992258E-3,.196222E-2,0
STARLINK-37657,2026-110X,2026-06-06T14:00:04.000032,15.67396368,.00017732,97.2845,353.8808,68.8793,31.6575,0,U,69145,999,400,-.27635518E-1,-.2588841E-1,0
STARLINK-37639,2026-110Y,2026-06-06T11:45:59.312448,15.80931235,.00013697,97.2843,353.8131,110.7373,249.4042,0,U,69146,999,395,.13315335E-2,.264171E-2,0
STARLINK-37661,2026-110Z,2026-06-06T14:00:04.000032,15.61061512,.00017055,97.2847,353.8565,58.5118,344.9431,0,U,69147,999,400,-.35505761E-1,-.2585196E-1,0
STARLINK-37395,2026-111A,2026-06-06T14:04:18.573312,15.80910673,.0001267,53.1581,204.7880,93.6548,266.4620,0,U,69148,999,258,.95224977E-3,.191809E-2,0
STARLINK-37346,2026-111B,2026-06-06T14:02:48.344064,15.80917346,.00013822,53.1583,204.7812,79.9222,280.1956,0,U,69149,999,258,.11280915E-2,.228404E-2,0
STARLINK-37332,2026-111C,2026-06-06T14:00:04.000032,15.80790108,.00011419,53.1585,204.7765,80.3059,276.7589,0,U,69150,999,384,.67157568E-3,.133402E-2,0
STARLINK-37297,2026-111D,2026-06-06T14:02:29.746464,15.80870562,.00010205,53.1585,204.7788,80.9697,279.1441,0,U,69151,999,258,.46236071E-3,.91517E-3,0
STARLINK-37317,2026-111E,2026-06-06T12:28:37.719264,15.80891323,.00009683,53.1585,205.0827,96.1387,263.9747,0,U,69152,999,257,.64164211E-3,.12794E-2,0
STARLINK-37374,2026-111F,2026-06-06T10:55:29.610912,15.81014475,.00007088,53.1588,205.3902,62.9845,297.1250,0,U,69153,999,256,.16301996E-2,.336086E-2,0
STARLINK-37235,2026-111G,2026-06-06T14:00:04.000032,15.75797434,.0000834,53.1591,204.7743,71.5476,286.2648,0,U,69154,999,384,-.17985336E-1,-.2425833E-1,0
STARLINK-37329,2026-111H,2026-06-06T12:29:15.695520,15.81006750,.00012861,53.1588,205.0853,77.1998,282.9169,0,U,69155,999,257,.13723884E-2,.280888E-2,0
STARLINK-37345,2026-111J,2026-06-06T13:58:13.859040,15.80950039,.00010926,53.1585,204.7600,76.6240,283.4905,0,U,69156,999,258,.14023953E-2,.286485E-2,0
STARLINK-37353,2026-111K,2026-06-06T13:57:55.468800,15.80885081,.0001677,53.1590,204.7580,38.9475,321.1668,0,U,69157,999,258,.71101159E-3,.142044E-2,0
STARLINK-37363,2026-111L,2026-06-06T13:54:56.068704,15.80895887,.00014913,53.1584,204.7427,84.9647,275.1546,0,U,69158,999,258,.8118689E-3,.162765E-2,0
STARLINK-37343,2026-111M,2026-06-06T13:54:11.871648,15.79337064,.00029677,53.1592,204.7398,212.1458,147.9384,0,U,69159,999,258,-.66037139E-2,-.1092697E-1,0
STARLINK-37328,2026-111N,2026-06-06T06:19:33.572064,15.80970098,.00013252,53.1587,206.3261,111.2972,248.8193,0,U,69160,999,253,.92778909E-3,.187278E-2,0
STARLINK-37311,2026-111P,2026-06-06T15:24:25.611840,15.79759798,.00011936,53.1590,204.4196,181.7768,178.3250,0,U,69161,999,259,-.54269818E-2,-.916178E-2,0
STARLINK-36286,2026-111Q,2026-06-06T13:52:11.914752,15.80506471,.000775,53.1585,204.7302,26.4145,333.7271,0,U,69162,999,258,-.79003123E-3,-.151746E-2,0
STARLINK-37196,2026-111R,2026-06-06T14:00:04.000032,15.77968212,.00011132,53.1590,204.7342,104.2776,272.6641,0,U,69163,999,384,.71900003E-3,.125528E-2,0
STARLINK-36288,2026-111S,2026-06-06T14:00:04.000032,15.77962162,.00011268,53.1590,204.7239,80.8076,300.7483,0,U,69164,999,384,.81543233E-3,.142704E-2,0
STARLINK-37445,2026-111T,2026-06-06T15:21:18.386496,15.78221115,.00000104,53.1586,204.4040,33.9129,326.1893,0,U,69165,999,259,-.28942001E-2,-.479478E-2,0
