STARLINK-37531          
1 69136U 26110N   26157.58337963 -.01556679  00000+0 -12220-1 0  9998
2 69136  97.2841 353.8816 0001775  67.7627  34.5128 15.74606374  3950
STARLINK-37662          
1 69137U 26110P   26157.58337963 -.02043274  00000+0 -20147-1 0  9999
2 69137  97.2844 353.8666 0001820  54.8545  12.5795 15.69061933  3950
STARLINK-37658          
1 69138U 26110Q   26157.58337963 -.02541887  00000+0 -35891-1 0  9995
2 69138  97.2848 353.8294 0001416  76.1394 264.0068 15.60280089  3955
STARLINK-37659          
1 69139U 26110R   26157.58337963 -.02509022  00000+0 -38031-1 0  9990
2 69139  97.2850 353.8178 0001430  85.4763 226.9395 15.58371769  3952
STARLINK-37653          
1 69140U 26110S   26157.58337963 -.02544282  00000+0 -40808-1 0  9994
2 69140  97.2849 353.8162 0001590  93.7746 213.3070 15.56929063  3959
STARLINK-37654          
1 69141U 26110T   26157.58337963 -.02182703  00000+0 -22812-1 0  9996
2 69141  97.2841 353.8758 0001689  66.8412  23.4172 15.67884030  3952
STARLINK-37655          
1 69142U 26110U   26157.58337963 -.01174592  00000+0 -10423-1 0  9998
2 69142  97.2842 353.8835 0001523  72.8787  33.6257 15.71377781  3951
STARLINK-37636          
1 69143U 26110V   26157.49252736  .00150531  00000+0  77093-3 0  9995
2 69143  97.2840 353.8097 0001930  87.9372 272.2117 15.80877608  3958
STARLINK-37638          
1 69144U 26110W   26157.49177636  .00196222  00000+0  99923-3 0  9994
2 69144  97.2841 353.8106 0001558 102.0936 258.0507 15.80882849  3950
STARLINK-37657          
1 69145U 26110X   26157.58337963 -.02588841  00000+0 -27636-1 0  9992
2 69145  97.2845 353.8808 0001773  68.8793  31.6575 15.67396368  4001
STARLINK-37639          
1 69146U 26110Y   26157.49026982  .00264171  00000+0  13315-2 0  9992
2 69146  97.2843 353.8131 0001369 110.7373 249.4042 15.80931235  3955
STARLINK-37661          
1 69147U 26110Z   26157.58337963 -.02585196  00000+0 -35506-1 0  9999
2 69147  97.2847 353.8565 0001705  58.5118 344.9431 15.61061512  4002
STARLINK-37395          
1 69148U 26111A   26157.58632608  .00191809  00000+0  95225-3 0  9991
2 69148  53.1581 204.7880 0001267  93.6548 266.4620 15.80910673  2584
STARLINK-37346          
1 69149U 26111B   26157.58528176  .00228404  00000+0  11281-2 0  9997
2 69149  53.1583 204.7812 0001382  79.9222 280.1956 15.80917346  2585
STARLINK-37332          
1 69150U 26111C   26157.58337963  .00133402  00000+0  67158-3 0  9999
2 69150  53.1585 204.7765 0001141  80.3059 276.7589 15.80790108  3841
STARLINK-37297          
1 69151U 26111D   26157.58506651  .00091517  00000+0  46236-3 0  9996
2 69151  53.1585 204.7788 0001020  80.9697 279.1441 15.80870562  2584
STARLINK-37317          
1 69152U 26111E   26157.51988101  .00127940  00000+0  64164-3 0  9994
2 69152  53.1585 205.0827 0000968  96.1387 263.9747 15.80891323  2575
STARLINK-37374          
1 69153U 26111F   26157.45520383  .00336086  00000+0  16302-2 0  9995
2 69153  53.1588 205.3902 0000708  62.9845 297.1250 15.81014475  2561
STARLINK-37235          
1 69154U 26111G   26157.58337963 -.02425833  00000+0 -17985-1 0  9990
2 69154  53.1591 204.7743 0000834  71.5476 286.2648 15.75797434  3846
STARLINK-37329          
1 69155U 26111H   26157.52032055  .00280888  00000+0  13724-2 0  9992
2 69155  53.1588 205.0853 0001286  77.1998 282.9169 15.81006750  2573
STARLINK-37345          
1 69156U 26111J   26157.58210485  .00286485  00000+0  14024-2 0  9997
2 69156  53.1585 204.7600 0001092  76.6240 283.4905 15.80950039  2588
STARLINK-37353          
1 69157U 26111K   26157.58189200  .00142044  00000+0  71101-3 0  9990
2 69157  53.1590 204.7580 0001677  38.9475 321.1668 15.80885081  2582
STARLINK-37363          
1 69158U 26111L   26157.57981561  .00162765  00000+0  81187-3 0  9997
2 69158  53.1584 204.7427 0001491  84.9647 275.1546 15.80895887  2580
STARLINK-37343          
1 69159U 26111M   26157.57930407 -.01092697  00000+0 -66037-2 0  9996
2 69159  53.1592 204.7398 0002967 212.1458 147.9384 15.79337064  2583
STARLINK-37328          
1 69160U 26111N   26157.26358301  .00187278  00000+0  92779-3 0  9991
2 69160  53.1587 206.3261 0001325 111.2972 248.8193 15.80970098  2539
STARLINK-37311          
1 69161U 26111P   26157.64196310 -.00916178  00000+0 -54270-2 0  9998
2 69161  53.1590 204.4196 0001193 181.7768 178.3250 15.79759798  2595
STARLINK-36286          
1 69162U 26111Q   26157.57791568 -.00151746  00000+0 -79003-3 0  9991
2 69162  53.1585 204.7302 0007750  26.4145 333.7271 15.80506471  2580
STARLINK-37196          
1 69163U 26111R   26157.58337963  .00125528  00000+0  71900-3 0  9993
2 69163  53.1590 204.7342 0001113 104.2776 272.6641 15.77968212  3846
STARLINK-36288          
1 69164U 26111S   26157.58337963  .00142704  00000+0  81543-3 0  9993
2 69164  53.1590 204.7239 0001126  80.8076 300.7483 15.77962162  3843
STARLINK-37445          
1 69165U 26111T   26157.63979614 -.00479478  00000+0 -28942-2 0  9991
2 69165  53.1586 204.4040 0000010  33.9129 326.1893 15.78221115  2590
